{
  "links" : {
    "next" : "https://api.nasa.gov/neo/rest/v1/feed?start_date=2010-09-16&end_date=2010-09-16&detailed=true&api_key=t0TVs3DtDT2H8Oy2Zy8m2eVrNsAVKAexjcZXUckd",
    "prev" : "https://api.nasa.gov/neo/rest/v1/feed?start_date=2010-09-14&end_date=2010-09-14&detailed=true&api_key=t0TVs3DtDT2H8Oy2Zy8m2eVrNsAVKAexjcZXUckd",
    "self" : "https://api.nasa.gov/neo/rest/v1/feed?start_date=2010-09-15&end_date=2010-09-15&detailed=true&api_key=t0TVs3DtDT2H8Oy2Zy8m2eVrNsAVKAexjcZXUckd"
  },
  "element_count" : 7,
  "near_earth_objects" : {
    "2010-09-15" : [ {
      "links" : {
        "self" : "https://api.nasa.gov/neo/rest/v1/neo/3546697?api_key=t0TVs3DtDT2H8Oy2Zy8m2eVrNsAVKAexjcZXUckd"
      },
      "neo_reference_id" : "3546697",
      "name" : "(2010 RB130)",
      "nasa_jpl_url" : "http://ssd.jpl.nasa.gov/sbdb.cgi?sstr=3546697",
      "absolute_magnitude_h" : 24.3,
      "estimated_diameter" : {
        "kilometers" : {
          "estimated_diameter_min" : 0.0366906138,
          "estimated_diameter_max" : 0.0820427065
        },
        "meters" : {
          "estimated_diameter_min" : 36.6906137531,
          "estimated_diameter_max" : 82.0427064882
        },
        "miles" : {
          "estimated_diameter_min" : 0.0227984834,
          "estimated_diameter_max" : 0.0509789586
        },
        "feet" : {
          "estimated_diameter_min" : 120.3760332259,
          "estimated_diameter_max" : 269.1689931548
        }
      },
      "is_potentially_hazardous_asteroid" : false,
      "close_approach_data" : [ {
        "close_approach_date" : "2010-09-15",
        "epoch_date_close_approach" : 1284534000000,
        "relative_velocity" : {
          "kilometers_per_second" : "7.3490508504",
          "kilometers_per_hour" : "26456.5830612665",
          "miles_per_hour" : "16439.0918471519"
        },
        "miss_distance" : {
          "astronomical" : "0.0353283279",
          "lunar" : "13.7427196503",
          "kilometers" : "5285043",
          "miles" : "3283973.25"
        },
        "orbiting_body" : "Earth"
      } ],
      "orbital_data" : {
        "orbit_id" : "24",
        "orbit_determination_date" : "2017-04-06 08:56:42",
        "orbit_uncertainty" : "7",
        "minimum_orbit_intersection" : ".017896",
        "jupiter_tisserand_invariant" : "3.507",
        "epoch_osculation" : "2458000.5",
        "eccentricity" : ".5248414963558161",
        "semi_major_axis" : "2.158802371134827",
        "inclination" : "1.017438338198672",
        "ascending_node_longitude" : ".001940674157596189",
        "orbital_period" : "1158.557936119238",
        "perihelion_distance" : "1.02577330433194",
        "perihelion_argument" : "339.6385522145948",
        "aphelion_distance" : "3.291831437937713",
        "perihelion_time" : "2457765.265863198853",
        "mean_anomaly" : "73.09456575997869",
        "mean_motion" : ".3107311156193652",
        "equinox" : "J2000"
      }
    }, {
      "links" : {
        "self" : "https://api.nasa.gov/neo/rest/v1/neo/2152952?api_key=t0TVs3DtDT2H8Oy2Zy8m2eVrNsAVKAexjcZXUckd"
      },
      "neo_reference_id" : "2152952",
      "name" : "152952 (2000 GC2)",
      "nasa_jpl_url" : "http://ssd.jpl.nasa.gov/sbdb.cgi?sstr=2152952",
      "absolute_magnitude_h" : 17.6,
      "estimated_diameter" : {
        "kilometers" : {
          "estimated_diameter_min" : 0.8027031673,
          "estimated_diameter_max" : 1.7948988478
        },
        "meters" : {
          "estimated_diameter_min" : 802.7031672829,
          "estimated_diameter_max" : 1794.8988477988
        },
        "miles" : {
          "estimated_diameter_min" : 0.4987764698,
          "estimated_diameter_max" : 1.115298092
        },
        "feet" : {
          "estimated_diameter_min" : 2633.5406593483,
          "estimated_diameter_max" : 5888.7759358124
        }
      },
      "is_potentially_hazardous_asteroid" : false,
      "close_approach_data" : [ {
        "close_approach_date" : "2010-09-15",
        "epoch_date_close_approach" : 1284534000000,
        "relative_velocity" : {
          "kilometers_per_second" : "26.1386118449",
          "kilometers_per_hour" : "94099.0026417941",
          "miles_per_hour" : "58469.4608359526"
        },
        "miss_distance" : {
          "astronomical" : "0.4376056719",
          "lunar" : "170.2286071777",
          "kilometers" : "65464880",
          "miles" : "40677988"
        },
        "orbiting_body" : "Earth"
      } ],
      "orbital_data" : {
        "orbit_id" : "69",
        "orbit_determination_date" : "2017-04-06 09:27:08",
        "orbit_uncertainty" : "0",
        "minimum_orbit_intersection" : ".27964",
        "jupiter_tisserand_invariant" : "4.338",
        "epoch_osculation" : "2458000.5",
        "eccentricity" : ".1870188172895932",
        "semi_major_axis" : "1.383480515362214",
        "inclination" : "55.29702910665964",
        "ascending_node_longitude" : "358.7016579682951",
        "orbital_period" : "594.371528018631",
        "perihelion_distance" : "1.124743625635976",
        "perihelion_argument" : "280.2303896958288",
        "aphelion_distance" : "1.642217405088453",
        "perihelion_time" : "2457719.694880437300",
        "mean_anomaly" : "170.0785422537994",
        "mean_motion" : ".6056817714672152",
        "equinox" : "J2000"
      }
    }, {
      "links" : {
        "self" : "https://api.nasa.gov/neo/rest/v1/neo/3529605?api_key=t0TVs3DtDT2H8Oy2Zy8m2eVrNsAVKAexjcZXUckd"
      },
      "neo_reference_id" : "3529605",
      "name" : "(2010 LG64)",
      "nasa_jpl_url" : "http://ssd.jpl.nasa.gov/sbdb.cgi?sstr=3529605",
      "absolute_magnitude_h" : 20.2,
      "estimated_diameter" : {
        "kilometers" : {
          "estimated_diameter_min" : 0.2424124811,
          "estimated_diameter_max" : 0.5420507863
        },
        "meters" : {
          "estimated_diameter_min" : 242.4124811008,
          "estimated_diameter_max" : 542.0507863358
        },
        "miles" : {
          "estimated_diameter_min" : 0.1506280858,
          "estimated_diameter_max" : 0.3368146392
        },
        "feet" : {
          "estimated_diameter_min" : 795.3165644948,
          "estimated_diameter_max" : 1778.3819018419
        }
      },
      "is_potentially_hazardous_asteroid" : false,
      "close_approach_data" : [ {
        "close_approach_date" : "2010-09-15",
        "epoch_date_close_approach" : 1284534000000,
        "relative_velocity" : {
          "kilometers_per_second" : "26.3325629158",
          "kilometers_per_hour" : "94797.2264967871",
          "miles_per_hour" : "58903.3099862953"
        },
        "miss_distance" : {
          "astronomical" : "0.350340223",
          "lunar" : "136.2823486328",
          "kilometers" : "52410152",
          "miles" : "32566158"
        },
        "orbiting_body" : "Earth"
      } ],
      "orbital_data" : {
        "orbit_id" : "8",
        "orbit_determination_date" : "2017-04-06 08:57:20",
        "orbit_uncertainty" : "6",
        "minimum_orbit_intersection" : ".0584764",
        "jupiter_tisserand_invariant" : "2.788",
        "epoch_osculation" : "2458000.5",
        "eccentricity" : ".6051972353874271",
        "semi_major_axis" : "2.68065352537433",
        "inclination" : "42.19926979551455",
        "ascending_node_longitude" : "8.785735395130603",
        "orbital_period" : "1603.095719192793",
        "perihelion_distance" : "1.058329422786225",
        "perihelion_argument" : "355.9836099915419",
        "aphelion_distance" : "4.302977627962434",
        "perihelion_time" : "2458643.320441046463",
        "mean_anomaly" : "215.6447029293726",
        "mean_motion" : ".2245655051597736",
        "equinox" : "J2000"
      }
    } ]
  }
}